From: horizons@ssd.jpl.nasa.gov (Horizons Ephemeris System)
Subject: [Horizons] SMALL BODY #C(500@10)_T(294P/LINEAR) (1/1)
Date: March 1, 2021 at 1:23:06 PM PST

Automated mail xmit by MAIL_REQUEST, PID= 2301 Mon Mar  1 13:23:05 2021
++++++++++++++++++++++++++++++++ (part 1 of 1)  +++++++++++++++++++++++++++++++
*******************************************************************************
JPL/HORIZONS                     294P/LINEAR               2021-Mar-01 13:23:05
Rec #:90001207 (+COV) Soln.date: 2020-Aug-24_11:21:22    # obs: 233 (2008-2020)

IAU76/J2000 helio. ecliptic osc. elements (au, days, deg., period=Julian yrs):

 EPOCH=  2455453.5 ! 2010-Sep-14.0000000 (TDB)    RMSW= n.a.
  EC= .59860595579441     QR= 1.282207367182481   TP= 2454634.1137687592
  OM= 314.3382997405063   W= 234.1686463827063    IN= 18.5417644487203
  A= 3.194385631007886    MA= 141.4528559476477   ADIST= 5.106563894833291
  PER= 5.709383686909     N= .172632693           ANGMOM= .024628122
  DAN= 3.15551            DDN= 1.51785            L= 187.0458706
  B= -14.940339           MOID= .37877601         TP= 2008-Jun-16.6137687592

Comet physical (GM= km^3/s^2; RAD= km):
  GM= n.a.                RAD= n.a.
  M1=  17.9     M2=  n.a.     k1=  4.5    k2= n.a.     PHCOF= n.a.

COMET comments 
1: soln ref.= JPL#31, data arc: 2008-01-13 to 2020-08-15
2: k1=4.5;
*******************************************************************************


*******************************************************************************
Ephemeris / MAIL_REQUEST Mon Mar  1 13:23:05 2021 Pasadena, USA  / Horizons
*******************************************************************************
Target body name: 294P/LINEAR                     {source: JPL#31}
Center body name: Sun (10)                        {source: DE431}
Center-site name: BODY CENTER
*******************************************************************************
Start time      : A.D. 1990-Jan-01 00:00:00.0000 TDB
Stop  time      : A.D. 2020-Dec-31 00:00:00.0000 TDB
Step-size       : 10080 minutes
*******************************************************************************
Center geodetic : 0.00000000,0.00000000,0.0000000 {E-lon(deg),Lat(deg),Alt(km)}
Center cylindric: 0.00000000,0.00000000,0.0000000 {E-lon(deg),Dxy(km),Dz(km)}
Center radii    : 696000.0 x 696000.0 x 696000.0 k{Equator, meridian, pole}    
Small perturbers: Yes                             {source: SB431-N16}
Output units    : AU-D
Output type     : GEOMETRIC cartesian states
Output format   : 6 (LT, range, and range-rate)
Reference frame : Ecliptic of J2000.0
*******************************************************************************
Initial IAU76/J2000 heliocentric ecliptic osculating elements (au, days, deg.):
 EPOCH=  2455453.5 ! 2010-Sep-14.0000000 (TDB)    RMSW= n.a.                  
  EC= .59860595579441     QR= 1.282207367182481   TP= 2454634.1137687592      
  OM= 314.3382997405063   W= 234.1686463827063    IN= 18.5417644487203        
 Equivalent ICRF heliocentric equatorial cartesian coordinates (au, au/d):
  X= 4.802646792981135E+00  Y=-8.300213617794382E-01  Z= 7.806433313612899E-01
 VX= 1.695053486109830E-03 VY= 3.714368393819112E-03 VZ= 3.255088968444543E-03
Comet physical (GM= km^3/s^2; RAD= km):                                        
  GM= n.a.                RAD= n.a.                                           
  M1=  17.9     M2=  n.a.     k1=  4.5    k2= n.a.     PHCOF= n.a.            
*******************************************************************************
           JDTDB,            Calendar Date (TDB),                     LT,                     RG,                     RR,
**************************************************************************************************************************
$$SOE
2458042.500000000, A.D. 2017-Oct-16 00:00:00.0000,  2.804952506143968E-02,  4.856624713449873E+00, -1.884529992379837E-03,
2458049.500000000, A.D. 2017-Oct-23 00:00:00.0000,  2.797231829202923E-02,  4.843256775720335E+00, -1.934909671448481E-03,
2458056.500000000, A.D. 2017-Oct-30 00:00:00.0000,  2.789307120189029E-02,  4.829535567407726E+00, -1.985465343335171E-03,
2458063.500000000, A.D. 2017-Nov-06 00:00:00.0000,  2.781177656610453E-02,  4.815459837556216E+00, -2.036202458733728E-03,
2458070.500000000, A.D. 2017-Nov-13 00:00:00.0000,  2.772842693670433E-02,  4.801028296590183E+00, -2.087126606273989E-03,
2458077.500000000, A.D. 2017-Nov-20 00:00:00.0000,  2.764301463648976E-02,  4.786239615243669E+00, -2.138243542214936E-03,
2458084.500000000, A.D. 2017-Nov-27 00:00:00.0000,  2.755553175188042E-02,  4.771092423322703E+00, -2.189559199032785E-03,
2458091.500000000, A.D. 2017-Dec-04 00:00:00.0000,  2.746597012824497E-02,  4.755585308896634E+00, -2.241079500369360E-03,
2458098.500000000, A.D. 2017-Dec-11 00:00:00.0000,  2.737432138378698E-02,  4.739716820702401E+00, -2.292809577382877E-03,
2458105.500000000, A.D. 2017-Dec-18 00:00:00.0000,  2.728057695643249E-02,  4.723485476262849E+00, -2.344753369334686E-03,
2458112.500000000, A.D. 2017-Dec-25 00:00:00.0000,  2.718472811098548E-02,  4.706889763125677E+00, -2.396915982487424E-03,
2458119.500000000, A.D. 2018-Jan-01 00:00:00.0000,  2.708676586310085E-02,  4.689928125699749E+00, -2.449304354961550E-03,
2458126.500000000, A.D. 2018-Jan-08 00:00:00.0000,  2.698668094555666E-02,  4.672598959415329E+00, -2.501925311042060E-03,
2458133.500000000, A.D. 2018-Jan-15 00:00:00.0000,  2.688446382703433E-02,  4.654900613975760E+00, -2.554785133070889E-03,
2458140.500000000, A.D. 2018-Jan-22 00:00:00.0000,  2.678010472776429E-02,  4.636831396066436E+00, -2.607889877001356E-03,
2458147.500000000, A.D. 2018-Jan-29 00:00:00.0000,  2.667359362418014E-02,  4.618389570160629E+00, -2.661245567121475E-03,
2458154.500000000, A.D. 2018-Feb-05 00:00:00.0000,  2.656492024836313E-02,  4.599573358423324E+00, -2.714858276157239E-03,
2458161.500000000, A.D. 2018-Feb-12 00:00:00.0000,  2.645407408509795E-02,  4.580380940201426E+00, -2.768734172713201E-03,
2458168.500000000, A.D. 2018-Feb-19 00:00:00.0000,  2.634104436705288E-02,  4.560810451189240E+00, -2.822879567541030E-03,
2458175.500000000, A.D. 2018-Feb-26 00:00:00.0000,  2.622582006868665E-02,  4.540859982373472E+00, -2.877300908565581E-03,
2458182.500000000, A.D. 2018-Mar-05 00:00:00.0000,  2.610838990586938E-02,  4.520527579967599E+00, -2.932004420225070E-03,
2458189.500000000, A.D. 2018-Mar-12 00:00:00.0000,  2.598874236407468E-02,  4.499811250293178E+00, -2.986995117890916E-03,
2458196.500000000, A.D. 2018-Mar-19 00:00:00.0000,  2.586686574717928E-02,  4.478708968229246E+00, -3.042277373932052E-03,
2458203.500000000, A.D. 2018-Mar-26 00:00:00.0000,  2.574274814821338E-02,  4.457218672147887E+00, -3.097857483422040E-03,
2458210.500000000, A.D. 2018-Apr-02 00:00:00.0000,  2.561637737544839E-02,  4.435338251116733E+00, -3.153742862368317E-03,
2458217.500000000, A.D. 2018-Apr-09 00:00:00.0000,  2.548774094363160E-02,  4.413065543381289E+00, -3.209940525861149E-03,
2458224.500000000, A.D. 2018-Apr-16 00:00:00.0000,  2.535682609271704E-02,  4.390398339608085E+00, -3.266457106464899E-03,
2458231.500000000, A.D. 2018-Apr-23 00:00:00.0000,  2.522361979734584E-02,  4.367334384526143E+00, -3.323299130306255E-03,
2458238.500000000, A.D. 2018-Apr-30 00:00:00.0000,  2.508810876800011E-02,  4.343871377126769E+00, -3.380473153080649E-03,
2458245.500000000, A.D. 2018-May-07 00:00:00.0000,  2.495027944844687E-02,  4.320006970220982E+00, -3.437985821248526E-03,
2458252.500000000, A.D. 2018-May-14 00:00:00.0000,  2.481011801114054E-02,  4.295738769643484E+00, -3.495843918144178E-03,
2458259.500000000, A.D. 2018-May-21 00:00:00.0000,  2.466761035074970E-02,  4.271064333131846E+00, -3.554054406999796E-03,
2458266.500000000, A.D. 2018-May-28 00:00:00.0000,  2.452274207755859E-02,  4.245981169184019E+00, -3.612624350784001E-03,
2458273.500000000, A.D. 2018-Jun-04 00:00:00.0000,  2.437549852393998E-02,  4.220486738179075E+00, -3.671560247458646E-03,
2458280.500000000, A.D. 2018-Jun-11 00:00:00.0000,  2.422586478941818E-02,  4.194578460179624E+00, -3.730867094045146E-03,
2458287.500000000, A.D. 2018-Jun-18 00:00:00.0000,  2.407382577757938E-02,  4.168253721322639E+00, -3.790550117843143E-03,
2458294.500000000, A.D. 2018-Jun-25 00:00:00.0000,  2.391936613971128E-02,  4.141509864060971E+00, -3.850616483654164E-03,
2458301.500000000, A.D. 2018-Jul-02 00:00:00.0000,  2.376247022606650E-02,  4.114344178724858E+00, -3.911073606987125E-03,
2458308.500000000, A.D. 2018-Jul-09 00:00:00.0000,  2.360312210006398E-02,  4.086753905980821E+00, -3.971928249363264E-03,
2458315.500000000, A.D. 2018-Jul-16 00:00:00.0000,  2.344130556273308E-02,  4.058736241064046E+00, -4.033186667747828E-03,
2458322.500000000, A.D. 2018-Jul-23 00:00:00.0000,  2.327700416941607E-02,  4.030288336670306E+00, -4.094854774359101E-03,
2458329.500000000, A.D. 2018-Jul-30 00:00:00.0000,  2.311020124250670E-02,  4.001407305161595E+00, -4.156938183135662E-03,
2458336.500000000, A.D. 2018-Aug-06 00:00:00.0000,  2.294087988340278E-02,  3.972090220635645E+00, -4.219442212424357E-03,
2458343.500000000, A.D. 2018-Aug-13 00:00:00.0000,  2.276902298443763E-02,  3.942334120991789E+00, -4.282371887582645E-03,
2458350.500000000, A.D. 2018-Aug-20 00:00:00.0000,  2.259461324072939E-02,  3.912136009982619E+00, -4.345731930560746E-03,
2458357.500000000, A.D. 2018-Aug-27 00:00:00.0000,  2.241763316602538E-02,  3.881492859957332E+00, -4.409526495080535E-03,
2458364.500000000, A.D. 2018-Sep-03 00:00:00.0000,  2.223806513435343E-02,  3.850401619073456E+00, -4.473758100889411E-03,
2458371.500000000, A.D. 2018-Sep-10 00:00:00.0000,  2.205589146372398E-02,  3.818859225789403E+00, -4.538427206237797E-03,
2458378.500000000, A.D. 2018-Sep-17 00:00:00.0000,  2.187109445370197E-02,  3.786862615369843E+00, -4.603534692006482E-03,
2458385.500000000, A.D. 2018-Sep-24 00:00:00.0000,  2.168365634841490E-02,  3.754408713480758E+00, -4.669082110695427E-03,
